IRIDIUM 150             
1 43257U 18030J   24054.11184475  .00000003  00000+0 -60947-5 0  9993
2 43257  86.3935 283.6406 0001946  96.8489 263.2929 14.34217445309055
IRIDIUM 143             
1 43258U 18030K   24054.37189067  .00000198  00000+0  63491-4 0  9994
2 43258  86.3940 283.5913 0002355  94.6620 265.4845 14.34216763309033
IRIDIUM 161             
1 43478U 18047C   24054.16473184  .00000333  00000+0  92852-4 0  9993
2 43478  86.4434  81.6442 0002237  91.3934 268.7523 14.43290403303251
IRIDIUM 152             
1 43479U 18047D   24053.78645800  .00000185  00000+0  58908-4 0  9996
2 43479  86.3907  81.6619 0002342  92.8731 267.2733 14.34216434301314
IRIDIUM 147             
1 43480U 18047E   24054.49048511  .00000119  00000+0  35517-4 0  9991
2 43480  86.3909  81.3574 0002049  90.2691 269.8739 14.34216148301413
IRIDIUM 110             
1 43481U 18047F   24054.49682751  .00000229  00000+0  74681-4 0  9999
2 43481  86.3911  81.4246 0001768  92.1174 268.0224 14.34216161301402
IRIDIUM 162             
1 43482U 18047G   24053.81174342  .00000374  00000+0  10507-3 0  9994
2 43482  86.4434  81.6933 0001940  89.8632 270.2791 14.43269264303197
IRIDIUM 160             
1 43569U 18061A   24053.95428847  .00000054  00000+0  12194-4 0  9993
2 43569  86.3937  49.9961 0002332  78.6455 281.5003 14.34217572292220
